IRIDIUM 116             
1 43072U 17083C   25351.18892758 -.00000008  00000+0 -10019-4 0  9993
2 43072  86.3957  38.0719 0002441  96.0678 264.0796 14.34216448418083
IRIDIUM 130             
1 43073U 17083D   25351.22698377  .00000193  00000+0  62007-4 0  9997
2 43073  86.3972  38.3140 0002464 100.0588 260.0886 14.34219383418035
IRIDIUM 151             
1 43074U 17083E   25351.20161162  .00000043  00000+0  84199-5 0  9994
2 43074  86.3965  38.1206 0002233  94.1009 266.0442 14.34217687418055
IRIDIUM 134             
1 43075U 17083F   25351.23966878  .00000237  00000+0  77510-4 0  9998
2 43075  86.3967  38.1102 0002268  99.0254 261.1199 14.34214875418025
IRIDIUM 137             
1 43076U 17083G   25351.18258519  .00000014  00000+0 -18961-5 0  9999
2 43076  86.3964  38.2229 0002533  87.3381 272.8105 14.34217301418089
IRIDIUM 141             
1 43077U 17083H   25351.17624132  .00000038  00000+0  63619-5 0  9992
2 43077  86.3961  38.0666 0001925  96.9832 263.1583 14.34217203418085
IRIDIUM 153             
1 43078U 17083J   25351.12841878 -.00000049  00000+0 -24583-4 0  9996
2 43078  86.3967   6.5771 0001734  96.7007 263.4387 14.34217573419186
IRIDIUM 131             
1 43079U 17083K   25351.23332475 -.00000007  00000+0 -94057-5 0  9995
2 43079  86.3963  38.2166 0002034  93.8032 266.3397 14.34217344418024
